{
  "norad_id": 59776,
  "name": "2024-092D",
  "history": [
    {
      "epoch": "2026-03-28T20:55:43.124160",
      "apogee_km": 469.68972465763,
      "perigee_km": 458.5108773552456,
      "latitude_deg": 41.95495613857898,
      "longitude_deg": -118.68541759974323,
      "semi_major_axis_km": 6842.2373010064375,
      "eccentricity": 0.0008169,
      "inclination_deg": 97.6446,
      "raan_deg": 217.8693,
      "arg_perigee_deg": 81.3404,
      "mean_anomaly_deg": 278.8763,
      "mean_motion_rev_day": 15.33930079
    }
  ]
}